OBJECT_NAME,OBJECT_ID,EPOCH,MEAN_MOTION,ECCENTRICITY,INCLINATION,RA_OF_ASC_NODE,ARG_OF_PERICENTER,MEAN_ANOMALY,EPHEMERIS_TYPE,CLASSIFICATION_TYPE,NORAD_CAT_ID,ELEMENT_SET_NO,REV_AT_EPOCH,BSTAR,MEAN_MOTION_DOT,MEAN_MOTION_DDOT
TEVEL2-9,2025-052AD,2026-05-16T23:42:39.050208,15.30884643,.00041536,97.3980,32.3946,243.1904,116.8912,0,U,63237,999,6525,.46781619E-3,.13898E-3,0
TEVEL2-7,2025-052AE,2026-05-16T22:59:11.251968,15.30613967,.0004286,97.3983,32.2930,243.6541,116.4260,0,U,63238,999,6524,.43355904E-3,.12766E-3,0
TEVEL2-8,2025-052AF,2026-05-16T23:10:34.550688,15.30595985,.00041958,97.3987,32.2789,244.8514,115.2292,0,U,63239,999,6524,.43060865E-3,.12671E-3,0
HADES-ICM,2025-052BN,2026-05-15T05:30:38.105280,15.98249306,.00098911,97.3754,39.5599,173.5382,186.6025,0,U,63492,999,6559,.18347231E-2,.842919E-2,.32853825E-3
FORESAIL-1 PRIME,2025-276DS,2026-05-16T23:02:39.969312,15.18391943,.00022017,97.4209,210.8082,173.4339,186.6924,0,U,66778,999,2566,.1750861E-3,.3533E-4,0
