TEVEL2-9                
1 63237U 25052AD  26136.98795197  .00013898  00000+0  46782-3 0  9996
2 63237  97.3980  32.3946 0004153 243.1904 116.8912 15.30884643 65250
TEVEL2-7                
1 63238U 25052AE  26136.95776912  .00012766  00000+0  43356-3 0  9995
2 63238  97.3983  32.2930 0004286 243.6541 116.4260 15.30613967 65245
TEVEL2-8                
1 63239U 25052AF  26136.96567767  .00012671  00000+0  43061-3 0  9991
2 63239  97.3987  32.2789 0004195 244.8514 115.2292 15.30595985 65245
HADES-ICM               
1 63492U 25052BN  26135.22960770  .00842919  32854-3  18347-2 0  9991
2 63492  97.3754  39.5599 0009891 173.5382 186.6025 15.98249306 65597
FORESAIL-1 PRIME        
1 66778U 25276DS  26136.96018483  .00003533  00000+0  17509-3 0  9991
2 66778  97.4209 210.8082 0002201 173.4339 186.6924 15.18391943 25662
